[
  {
    "OBJECT_NAME": "STARLINK-2525",
    "OBJECT_ID": "21040BG",
    "EPOCH": "2025-11-11T04:40:55.883136",
    "MEAN_MOTION": 15.06411132,
    "ECCENTRICITY": 0.0001319,
    "INCLINATION": 53.0543,
    "RA_OF_ASC_NODE": 13.5616,
    "ARG_OF_PERICENTER": 87.2022,
    "MEAN_ANOMALY": 272.9118,
    "EPHEMERIS_TYPE": 0,
    "CLASSIFICATION_TYPE": "U",
    "NORAD_CAT_ID": 48482,
    "ELEMENT_SET_NO": 999,
    "REV_AT_EPOCH": 24848,
    "BSTAR": 0.00054838,
    "MEAN_MOTION_DOT": 7.898e-05,
    "MEAN_MOTION_DDOT": 0.0,
    "TLE_LINE1": "1 48482U 21040BG  25315.19509124  .00007898  00000+0  54838-3 0  9992",
    "TLE_LINE2": "2 48482  53.0543  13.5616 0001319  87.2022 272.9118 15.06411132248485",
    "COMMENT": "Grouped by shell and plane from TLE"
  },
  {
    "OBJECT_NAME": "STARLINK-2531",
    "OBJECT_ID": "21040BH",
    "EPOCH": "2025-11-11T04:35:37.476672",
    "MEAN_MOTION": 15.06402636,
    "ECCENTRICITY": 0.0001682,
    "INCLINATION": 53.0552,
    "RA_OF_ASC_NODE": 13.5753,
    "ARG_OF_PERICENTER": 86.6531,
    "MEAN_ANOMALY": 273.4651,
    "EPHEMERIS_TYPE": 0,
    "CLASSIFICATION_TYPE": "U",
    "NORAD_CAT_ID": 48483,
    "ELEMENT_SET_NO": 999,
    "REV_AT_EPOCH": 24848,
    "BSTAR": 0.00010894,
    "MEAN_MOTION_DOT": 1.342e-05,
    "MEAN_MOTION_DDOT": 0.0,
    "TLE_LINE1": "1 48483U 21040BH  25315.19140598  .00001342  00000+0  10894-3 0  9991",
    "TLE_LINE2": "2 48483  53.0552  13.5753 0001682  86.6531 273.4651 15.06402636248486",
    "COMMENT": "Grouped by shell and plane from TLE"
  },
  {
    "OBJECT_NAME": "STARLINK-2500",
    "OBJECT_ID": "21040BK",
    "EPOCH": "2025-11-11T04:46:12.460512",
    "MEAN_MOTION": 15.06408489,
    "ECCENTRICITY": 0.0001662,
    "INCLINATION": 53.0553,
    "RA_OF_ASC_NODE": 13.5461,
    "ARG_OF_PERICENTER": 319.7548,
    "MEAN_ANOMALY": 40.3318,
    "EPHEMERIS_TYPE": 0,
    "CLASSIFICATION_TYPE": "U",
    "NORAD_CAT_ID": 48485,
    "ELEMENT_SET_NO": 999,
    "REV_AT_EPOCH": 24848,
    "BSTAR": 0.0010085,
    "MEAN_MOTION_DOT": 0.00014776,
    "MEAN_MOTION_DDOT": 0.0,
    "TLE_LINE1": "1 48485U 21040BK  25315.19875533  .00014776  00000+0  10085-2 0  9993",
    "TLE_LINE2": "2 48485  53.0553  13.5461 0001662 319.7548  40.3318 15.06408489248484",
    "COMMENT": "Grouped by shell and plane from TLE"
  },
  {
    "OBJECT_NAME": "STARLINK-2494",
    "OBJECT_ID": "21040BM",
    "EPOCH": "2025-11-10T13:01:27.755040",
    "MEAN_MOTION": 15.06384944,
    "ECCENTRICITY": 0.0001621,
    "INCLINATION": 53.0561,
    "RA_OF_ASC_NODE": 16.4916,
    "ARG_OF_PERICENTER": 101.0478,
    "MEAN_ANOMALY": 259.0693,
    "EPHEMERIS_TYPE": 0,
    "CLASSIFICATION_TYPE": "U",
    "NORAD_CAT_ID": 48487,
    "ELEMENT_SET_NO": 999,
    "REV_AT_EPOCH": 24839,
    "BSTAR": 0.00051152,
    "MEAN_MOTION_DOT": 7.343e-05,
    "MEAN_MOTION_DDOT": 0.0,
    "TLE_LINE1": "1 48487U 21040BM  25314.54268235  .00007343  00000+0  51152-3 0  9991",
    "TLE_LINE2": "2 48487  53.0561  16.4916 0001621 101.0478 259.0693 15.06384944248395",
    "COMMENT": "Grouped by shell and plane from TLE"
  },
  {
    "OBJECT_NAME": "STARLINK-3818",
    "OBJECT_ID": "22045K",
    "EPOCH": "2025-11-11T03:39:20.248416",
    "MEAN_MOTION": 15.08839753,
    "ECCENTRICITY": 0.0001648,
    "INCLINATION": 53.2193,
    "RA_OF_ASC_NODE": 11.2562,
    "ARG_OF_PERICENTER": 97.3612,
    "MEAN_ANOMALY": 262.7567,
    "EPHEMERIS_TYPE": 0,
    "CLASSIFICATION_TYPE": "U",
    "NORAD_CAT_ID": 52340,
    "ELEMENT_SET_NO": 999,
    "REV_AT_EPOCH": 19787,
    "BSTAR": 5.429500000000001e-05,
    "MEAN_MOTION_DOT": 5.76e-06,
    "MEAN_MOTION_DDOT": 0.0,
    "TLE_LINE1": "1 52340U 22045K   25315.15231769  .00000576  00000+0  54295-4 0  9993",
    "TLE_LINE2": "2 52340  53.2193  11.2562 0001648  97.3612 262.7567 15.08839753197879",
    "COMMENT": "Grouped by shell and plane from TLE"
  },
  {
    "OBJECT_NAME": "STARLINK-3850",
    "OBJECT_ID": "22045M",
    "EPOCH": "2025-11-10T11:50:48.151104",
    "MEAN_MOTION": 15.08841577,
    "ECCENTRICITY": 0.0001793,
    "INCLINATION": 53.2188,
    "RA_OF_ASC_NODE": 14.3264,
    "ARG_OF_PERICENTER": 80.261,
    "MEAN_ANOMALY": 279.8585,
    "EPHEMERIS_TYPE": 0,
    "CLASSIFICATION_TYPE": "U",
    "NORAD_CAT_ID": 52342,
    "ELEMENT_SET_NO": 999,
    "REV_AT_EPOCH": 19778,
    "BSTAR": 5.3723e-05,
    "MEAN_MOTION_DOT": 5.67e-06,
    "MEAN_MOTION_DDOT": 0.0,
    "TLE_LINE1": "1 52342U 22045M   25314.49361286  .00000567  00000+0  53723-4 0  9994",
    "TLE_LINE2": "2 52342  53.2188  14.3264 0001793  80.2610 279.8585 15.08841577197784",
    "COMMENT": "Grouped by shell and plane from TLE"
  },
  {
    "OBJECT_NAME": "STARLINK-3851",
    "OBJECT_ID": "22045P",
    "EPOCH": "2025-11-11T05:04:08.209632",
    "MEAN_MOTION": 15.08841145,
    "ECCENTRICITY": 0.0001415,
    "INCLINATION": 53.2189,
    "RA_OF_ASC_NODE": 11.0586,
    "ARG_OF_PERICENTER": 88.1926,
    "MEAN_ANOMALY": 271.9228,
    "EPHEMERIS_TYPE": 0,
    "CLASSIFICATION_TYPE": "U",
    "NORAD_CAT_ID": 52344,
    "ELEMENT_SET_NO": 999,
    "REV_AT_EPOCH": 19789,
    "BSTAR": 9.2526e-05,
    "MEAN_MOTION_DOT": 1.185e-05,
    "MEAN_MOTION_DDOT": 0.0,
    "TLE_LINE1": "1 52344U 22045P   25315.21120613  .00001185  00000+0  92526-4 0  9995",
    "TLE_LINE2": "2 52344  53.2189  11.0586 0001415  88.1926 271.9228 15.08841145197896",
    "COMMENT": "Grouped by shell and plane from TLE"
  },
  {
    "OBJECT_NAME": "STARLINK-3852",
    "OBJECT_ID": "22045Q",
    "EPOCH": "2025-11-11T07:18:00.550656",
    "MEAN_MOTION": 15.08844185,
    "ECCENTRICITY": 0.0001378,
    "INCLINATION": 53.2166,
    "RA_OF_ASC_NODE": 10.7363,
    "ARG_OF_PERICENTER": 69.8739,
    "MEAN_ANOMALY": 290.2402,
    "EPHEMERIS_TYPE": 0,
    "CLASSIFICATION_TYPE": "U",
    "NORAD_CAT_ID": 52345,
    "ELEMENT_SET_NO": 999,
    "REV_AT_EPOCH": 19789,
    "BSTAR": 0.0009586400000000001,
    "MEAN_MOTION_DOT": 0.00015003,
    "MEAN_MOTION_DDOT": 0.0,
    "TLE_LINE1": "1 52345U 22045Q   25315.30417304  .00015003  00000+0  95864-3 0  9993",
    "TLE_LINE2": "2 52345  53.2166  10.7363 0001378  69.8739 290.2402 15.08844185197892",
    "COMMENT": "Grouped by shell and plane from TLE"
  },
  {
    "OBJECT_NAME": "STARLINK-3812",
    "OBJECT_ID": "22045R",
    "EPOCH": "2025-11-11T03:19:31.122624",
    "MEAN_MOTION": 15.0883823,
    "ECCENTRICITY": 0.0001534,
    "INCLINATION": 53.2188,
    "RA_OF_ASC_NODE": 11.3279,
    "ARG_OF_PERICENTER": 102.067,
    "MEAN_ANOMALY": 258.0494,
    "EPHEMERIS_TYPE": 0,
    "CLASSIFICATION_TYPE": "U",
    "NORAD_CAT_ID": 52346,
    "ELEMENT_SET_NO": 999,
    "REV_AT_EPOCH": 19788,
    "BSTAR": 0.00016048,
    "MEAN_MOTION_DOT": 2.267e-05,
    "MEAN_MOTION_DDOT": 0.0,
    "TLE_LINE1": "1 52346U 22045R   25315.13855466  .00002267  00000+0  16048-3 0  9995",
    "TLE_LINE2": "2 52346  53.2188  11.3279 0001534 102.0670 258.0494 15.08838230197884",
    "COMMENT": "Grouped by shell and plane from TLE"
  },
  {
    "OBJECT_NAME": "STARLINK-3826",
    "OBJECT_ID": "22045S",
    "EPOCH": "2025-11-11T03:35:24.984672",
    "MEAN_MOTION": 15.08847241,
    "ECCENTRICITY": 0.0001565,
    "INCLINATION": 53.2187,
    "RA_OF_ASC_NODE": 11.2773,
    "ARG_OF_PERICENTER": 106.4012,
    "MEAN_ANOMALY": 253.7152,
    "EPHEMERIS_TYPE": 0,
    "CLASSIFICATION_TYPE": "U",
    "NORAD_CAT_ID": 52347,
    "ELEMENT_SET_NO": 999,
    "REV_AT_EPOCH": 19788,
    "BSTAR": 0.0,
    "MEAN_MOTION_DOT": -9.09e-06,
    "MEAN_MOTION_DDOT": 0.0,
    "TLE_LINE1": "1 52347U 22045S   25315.14959473 -.00000909  00000+0 -39025-4 0  9994",
    "TLE_LINE2": "2 52347  53.2187  11.2773 0001565 106.4012 253.7152 15.08847241197889",
    "COMMENT": "Grouped by shell and plane from TLE"
  },
  {
    "OBJECT_NAME": "STARLINK-3829",
    "OBJECT_ID": "22045T",
    "EPOCH": "2025-11-11T04:42:55.821024",
    "MEAN_MOTION": 15.08840048,
    "ECCENTRICITY": 0.0001286,
    "INCLINATION": 53.2187,
    "RA_OF_ASC_NODE": 11.0555,
    "ARG_OF_PERICENTER": 81.6772,
    "MEAN_ANOMALY": 278.4366,
    "EPHEMERIS_TYPE": 0,
    "CLASSIFICATION_TYPE": "U",
    "NORAD_CAT_ID": 52348,
    "ELEMENT_SET_NO": 999,
    "REV_AT_EPOCH": 19789,
    "BSTAR": 9.5245e-05,
    "MEAN_MOTION_DOT": 1.228e-05,
    "MEAN_MOTION_DDOT": 0.0,
    "TLE_LINE1": "1 52348U 22045T   25315.19647941  .00001228  00000+0  95245-4 0  9993",
    "TLE_LINE2": "2 52348  53.2187  11.0555 0001286  81.6772 278.4366 15.08840048197893",
    "COMMENT": "Grouped by shell and plane from TLE"
  },
  {
    "OBJECT_NAME": "STARLINK-3819",
    "OBJECT_ID": "22045U",
    "EPOCH": "2025-11-10T13:04:58.234944",
    "MEAN_MOTION": 15.08849557,
    "ECCENTRICITY": 0.0001362,
    "INCLINATION": 53.2192,
    "RA_OF_ASC_NODE": 13.9822,
    "ARG_OF_PERICENTER": 85.9308,
    "MEAN_ANOMALY": 274.1839,
    "EPHEMERIS_TYPE": 0,
    "CLASSIFICATION_TYPE": "U",
    "NORAD_CAT_ID": 52349,
    "ELEMENT_SET_NO": 999,
    "REV_AT_EPOCH": 19779,
    "BSTAR": 8.7815e-05,
    "MEAN_MOTION_DOT": 1.11e-05,
    "MEAN_MOTION_DDOT": 0.0,
    "TLE_LINE1": "1 52349U 22045U   25314.54511846  .00001110  00000+0  87815-4 0  9990",
    "TLE_LINE2": "2 52349  53.2192  13.9822 0001362  85.9308 274.1839 15.08849557197796",
    "COMMENT": "Grouped by shell and plane from TLE"
  },
  {
    "OBJECT_NAME": "STARLINK-3754",
    "OBJECT_ID": "22045V",
    "EPOCH": "2025-11-11T04:37:37.955424",
    "MEAN_MOTION": 15.08839645,
    "ECCENTRICITY": 0.0001348,
    "INCLINATION": 53.2183,
    "RA_OF_ASC_NODE": 11.0727,
    "ARG_OF_PERICENTER": 87.209,
    "MEAN_ANOMALY": 272.9057,
    "EPHEMERIS_TYPE": 0,
    "CLASSIFICATION_TYPE": "U",
    "NORAD_CAT_ID": 52350,
    "ELEMENT_SET_NO": 999,
    "REV_AT_EPOCH": 19789,
    "BSTAR": 4.4107e-05,
    "MEAN_MOTION_DOT": 4.14e-06,
    "MEAN_MOTION_DDOT": 0.0,
    "TLE_LINE1": "1 52350U 22045V   25315.19280041  .00000414  00000+0  44107-4 0  9997",
    "TLE_LINE2": "2 52350  53.2183  11.0727 0001348  87.2090 272.9057 15.08839645197894",
    "COMMENT": "Grouped by shell and plane from TLE"
  }
]